[{"OBJECT_NAME":"STARLINK-31610","OBJECT_ID":"2024-068U","EPOCH":"2026-03-09T06:57:28.653408","MEAN_MOTION":15.27581319,"ECCENTRICITY":9.735e-5,"INCLINATION":43.0045,"RA_OF_ASC_NODE":36.5943,"ARG_OF_PERICENTER":265.7582,"MEAN_ANOMALY":94.3159,"EPHEMERIS_TYPE":0,"CLASSIFICATION_TYPE":"U","NORAD_CAT_ID":59473,"ELEMENT_SET_NO":999,"REV_AT_EPOCH":10846,"BSTAR":-2.3710822e-5,"MEAN_MOTION_DOT":-9.14e-6,"MEAN_MOTION_DDOT":0},{"OBJECT_NAME":"FLOCK 4G-14","OBJECT_ID":"2025-009BL","EPOCH":"2026-03-09T18:12:31.432032","MEAN_MOTION":15.27197201,"ECCENTRICITY":0.00030064,"INCLINATION":97.4064,"RA_OF_ASC_NODE":151.1836,"ARG_OF_PERICENTER":318.3639,"MEAN_ANOMALY":41.7371,"EPHEMERIS_TYPE":0,"CLASSIFICATION_TYPE":"U","NORAD_CAT_ID":62667,"ELEMENT_SET_NO":999,"REV_AT_EPOCH":6371,"BSTAR":0.00042675627,"MEAN_MOTION_DOT":0.0001131,"MEAN_MOTION_DDOT":0}]
